MAKERSAT 0              
1 43016U 17073D   26085.20326298  .00018436  00000+0  54690-3 0  9993
2 43016  97.4756 327.2433 0114505 206.6791 152.8530 15.28523409453774
SIRION PATHFINDER-2     
1 43759U 18099B   26085.11250357  .00004642  00000+0  26107-3 0  9994
2 43759  97.4359 136.1515 0007895 218.4517 141.6153 15.13730109400056
CORVUS BC4              
1 43767U 18099K   26085.07500572  .00004811  00000+0  28548-3 0  9994
2 43767  97.4177 130.4871 0006871 291.0905  68.9590 15.11779687399848
M2 PATHFINDER           
1 45727U 20037E   26085.10979475  .00002280  00000+0  16809-3 0  9998
2 45727  97.8180 275.4133 0013401  76.6945 283.5774 15.04285671313003
NETSAT-4                
1 46504U 20068U   26084.95759449  .00016946  00000+0  41265-3 0  9993
2 46504  97.8649  86.6869 0003598 250.2438 109.8420 15.41008064302947
NETSAT-3                
1 46505U 20068V   26084.96196171  .00018292  00000+0  46466-3 0  9996
2 46505  97.8689  85.0237 0003279 278.5123  81.5750 15.39702503302863
NETSAT-1                
1 46506U 20068W   26085.20671669  .00014134  00000+0  45205-3 0  9996
2 46506  97.8760  80.5484 0003549 315.7608  44.3348 15.32545198302587
NETSAT-2                
1 46507U 20068X   26084.96236990  .00022358  00000+0  51946-3 0  9999
2 46507  97.8663  86.3335 0002011 312.8081  47.2995 15.42368334302895
GREENCUBE (IO-117)      
1 53109U 22080E   26085.07445587 -.00000003  00000+0  00000+0 0  9993
2 53109  70.1562 327.1605 0008976 308.7387  51.2470  6.42583188 86728
SITRO-AIS 5 (KATYS)     
1 57176U 23091L   26085.19041943  .00012523  00000+0  46680-3 0  9992
2 57176  97.5145 148.3878 0012442  42.8559 317.3648 15.27510641151667
SITRO-AIS 6 (CHIRKIN)   
1 57192U 23091AC  26085.18852887  .00006873  00000+0  28057-3 0  9995
2 57192  97.5152 147.9129 0013370  44.9997 315.2321 15.24652728151639
SITRO-AIS 8 (ANOKHIN)   
1 57193U 23091AD  26085.14758218  .00014027  00000+0  48650-3 0  9996
2 57193  97.5138 149.6183 0011501  40.5085 319.7009 15.29858617151741
SITRO-AIS 7 (FARTUSHNIY)
1 57194U 23091AE  26085.17586270  .00006389  00000+0  26315-3 0  9993
2 57194  97.5150 147.7646 0013280  45.9475 314.2853 15.24385634151620
SITRO-AIS 10 (BURDAEV)  
1 57199U 23091AK  26085.17912071  .00018781  00000+0  54679-3 0  9993
2 57199  97.5152 153.9103 0006856  22.5778 337.5765 15.35438575152011
SITRO-AIS 9 (SHCHUKIN)  
1 57201U 23091AM  26085.18146127  .00018738  00000+0  55234-3 0  9999
2 57201  97.5151 153.7020 0007093  22.0002 338.1544 15.35046679152000
SITRO-AIS 12 (SMIRENNIY)
1 57204U 23091AQ  26085.18709742  .00019269  00000+0  56337-3 0  9995
2 57204  97.5162 154.1252 0006562  16.2310 343.9142 15.35302073152027
SITRO-AIS 11 (SHEFFER)  
1 57208U 23091AU  26085.15650690  .00019108  00000+0  55239-3 0  9995
2 57208  97.5160 154.2927 0006482  16.8035 343.3422 15.35660482152037
SITRO-AIS 25            
1 59066U 24039R   26085.21082241  .00004501  00000+0  35806-3 0  9999
2 59066  95.3929 178.0937 0144470 257.8518 100.6492 14.92770273112341
SITRO-AIS 26            
1 59067U 24039S   26085.20129542  .00004596  00000+0  36714-3 0  9998
2 59067  95.3927 178.0011 0144799 258.3822 100.1120 14.92579316112338
SITRO-AIS 27            
1 59068U 24039T   26085.19426237  .00004447  00000+0  35232-3 0  9997
2 59068  95.3927 178.2303 0143973 257.1916 101.3190 14.92977359112350
SITRO-AIS 28            
1 59071U 24039U   26085.24064642  .00003665  00000+0  29062-3 0  9990
2 59071  95.3927 178.3051 0143947 256.9021 101.6106 14.93012230112360
GRBBETA                 
1 60237U 24128C   26085.17472037  .00003550  00000+0  25069-3 0  9994
2 60237  61.9894 147.3679 0049862 117.2900 243.3283 15.05962956 93761
OOV-CUBE (TUBSAT-30)    
1 60240U 24128F   26085.20287530  .00002157  00000+0  17332-3 0  9990
2 60240  61.9946 154.8467 0053181 115.7341 244.9253 15.02358394 93645
ROBUSTA-3A (MEDITERRAN*)
1 60243U 24128J   26085.15077927  .00006927  00000+0  42045-3 0  9992
2 60243  61.9857 141.6019 0050180 111.2446 249.4018 15.10392978 93878
LASARSAT                
1 62391U 24247Q   26084.95918374  .00028752  00000+0  68242-3 0  9994
2 62391  44.9775   8.1079 0003790 186.4871 173.5968 15.41243861 70458
CROCUBE                 
1 62394U 24247T   26085.17054818  .00035038  00000+0  79483-3 0  9990
2 62394  44.9745   5.3779 0003325 184.6632 175.4226 15.42513798 70507
FORESAIL-1 PRIME        
1 66778U 25276DS  26084.75876234  .00005687  00000+0  28389-3 0  9996
2 66778  97.4248 159.5874 0003505  61.2767 298.8819 15.17881295 17742
KNACKSAT-2              
1 67683U 98067XZ  26085.01307708  .00036370  00000+0  57280-3 0  9990
2 67683  51.6321 350.6612 0009902 244.8689 115.1274 15.53163580  7324
